STARLINK-30168
1 57513U 23113U   26061.16668981  .01244401  00000+0  54276-1 0  9991
2 57513  42.9996  57.9653 0001747 251.8014  19.2471 15.18388718  5769
